{
  "norad_id": 57225,
  "name": "STARLINK-6294",
  "history": [
    {
      "epoch": "2026-03-28T22:21:56.772576",
      "apogee_km": 486.61157052989074,
      "perigee_km": 481.9396400282167,
      "latitude_deg": -39.33883973313448,
      "longitude_deg": -8.036919359816238,
      "semi_major_axis_km": 6862.412605279053,
      "eccentricity": 0.0003404,
      "inclination_deg": 43.0018,
      "raan_deg": 282.4477,
      "arg_perigee_deg": 254.0806,
      "mean_anomaly_deg": 105.9671,
      "mean_motion_rev_day": 15.27170485
    }
  ]
}