{"fetched_at":"2026-03-29T16:36:15Z","count":15609,"tles":[{"name":"STARLINK-6294","line1":"1 57225U 23094H   26087.93190709  .00091703  00000+0  33418-2 0  9990","line2":"2 57225  43.0018 282.4477 0003404 254.0806 105.9671 15.27170485150059","category":"Starlink"}]}